ONEWEB-0517             
1 54135U 22138Y   23300.49526019  .00000088  00000+0  18757-3 0  9994
2 54135  87.9187 136.7846 0001950  75.8770 284.2579 13.19726836 49729
ONEWEB-0518             
1 54136U 22138Z   23300.51418644 -.00000037  00000+0 -12464-3 0  9997
2 54136  87.9184 136.7800 0001842  84.0755 276.0587 13.19726775 49722
ONEWEB-0519             
1 54137U 22138AA  23300.53947202  .00000060  00000+0  11721-3 0  9996
2 54137  87.9187 136.7736 0002042  75.4119 284.7240 13.19727758 49730
ONEWEB-0520             
1 54138U 22138AB  23300.49840779  .00000076  00000+0  15661-3 0  9997
2 54138  87.9185 136.7836 0001890  65.2518 294.8811 13.19727228 49716
ONEWEB-0521             
1 54139U 22138AC  23300.53158458  .00000014  00000+0  35169-5 0  9998
2 54139  87.9184 136.7737 0001961  89.6945 270.4413 13.19724483 49661
ONEWEB-0522             
1 54140U 22138AD  23300.51103721 -.00000093  00000+0 -26395-3 0  9999
2 54140  87.9184 136.7797 0001610  78.3438 281.7875 13.19726854 49708
ONEWEB-0523             
1 54141U 22138AE  23300.48037359  .00000150  00000+0  33763-3 0  9998
2 54141  87.9151 106.2896 0001645 131.8251 228.3023 13.20770655 52099
ONEWEB-0524             
1 54142U 22138AF  23300.46776054  .00000054  00000+0  10171-3 0  9990
2 54142  87.9183 106.2793 0000471 112.3478 247.7705 13.20773430 52098
